0 IRIDIUM 53
1 25173U 98010E   13282.35401561  .00000361  00000-0  12189-3 0  4817
2 25173 086.4023 193.2640 0002005 100.3389 038.5999 14.34222005818721
0 IRIDIUM 53
1 25173U 98010E   13282.35401561  .00000361  00000-0  12189-3 0  4828
2 25173 086.4023 193.2640 0002005 100.3389 038.5999 14.34222005818721
0 IRIDIUM 53
1 25173U 98010E   13283.40036705  .00000352  00000-0  11857-3 0  4831
2 25173 086.4023 192.8274 0002005 100.5002 037.5419 14.34222664818876
0 IRIDIUM 53
1 25173U 98010E   13284.37593179  .00000376  00000-0  12717-3 0  4844
2 25173 086.4023 192.4203 0002004 100.8246 031.0692 14.34223154819010
0 IRIDIUM 53
1 25173U 98010E   13285.49013270  .00000334  00000-0  11225-3 0  4855
2 25173 086.4022 191.9553 0002011 101.5766 019.5262 14.34223631819175
0 IRIDIUM 53
1 25173U 98010E   13285.49013270  .00000334  00000-0  11225-3 0  4866
2 25173 086.4022 191.9553 0002011 101.5766 019.5262 14.34223631819175
0 IRIDIUM 53
1 25173U 98010E   13286.33050192  .00000344  00000-0  11577-3 0  4876
2 25173 086.4022 191.6046 0002015 101.6975 035.6606 14.34223879819294
0 IRIDIUM 53
1 25173U 98010E   13287.44331758  .00000392  00000-0  13284-3 0  4880
2 25173 086.4021 191.1403 0002018 101.7980 017.6256 14.34224671819455
0 IRIDIUM 53
1 25173U 98010E   13287.44331758  .00000392  00000-0  13284-3 0  4891
2 25173 086.4021 191.1403 0002018 101.7980 017.6256 14.34224671819455
0 IRIDIUM 53
1 25173U 98010E   13288.48703144  .00000518  00000-0  17799-3 0  4905
2 25173 086.4019 190.7049 0002012 101.7919 003.1391 14.34226186819609
0 IRIDIUM 53
1 25173U 98010E   13288.48703144  .00000518  00000-0  17799-3 0  4916
2 25173 086.4019 190.7049 0002012 101.7919 003.1391 14.34226186819609
0 IRIDIUM 53
1 25173U 98010E   13289.39746723  .00000413  00000-0  14030-3 0  4927
2 25173 086.4017 190.3251 0002001 102.0065 020.7274 14.34227389819737
0 IRIDIUM 53
1 25173U 98010E   13290.01903454  .00000260  00000-0  85959-4 0  4934
2 25173 086.4021 190.0665 0001902 099.7814 350.1787 14.34214162819825
0 IRIDIUM 53
1 25173U 98010E   13290.44320703  .00000456  00000-0  15563-3 0  4942
2 25173 086.4016 189.8890 0002010 102.0888 016.5648 14.34215902819883
0 IRIDIUM 53
1 25173U 98010E   13291.41976851  .00000301  00000-0  10050-3 0  4957
2 25173 086.4015 189.4816 0002004 101.5934 016.0312 14.34216024820022
0 IRIDIUM 53
1 25173U 98010E   13292.46387451  .00000393  00000-0  13323-3 0  4963
2 25173 086.4013 189.0460 0002012 102.0980 003.0250 14.34217063820174
0 IRIDIUM 53
1 25173U 98010E   13292.46387451  .00000393  00000-0  13323-3 0  4974
2 25173 086.4013 189.0460 0002012 102.0980 003.0250 14.34217063820174
0 IRIDIUM 53
1 25173U 98010E   13293.44487265  .00000423  00000-0  14393-3 0  4980
2 25173 086.4012 188.6366 0002018 102.4574 024.5356 14.34218018820314
0 IRIDIUM 53
1 25173U 98010E   13294.35367811  .00000413  00000-0  14025-3 0  4997
2 25173 086.4011 188.2574 0002015 102.7783 033.5786 14.34219076820448
0 IRIDIUM 53
1 25173U 98010E   13295.32939856  .00000442  00000-0  15086-3 0  5002
2 25173 086.4011 187.8502 0002010 102.9681 028.0325 14.34220022820584
